[{"OBJECT_NAME":"IRIDE FM1","OBJECT_ID":"2025-276AF","EPOCH":"2026-03-09T18:13:05.170368","MEAN_MOTION":15.19690008,"ECCENTRICITY":8.247e-5,"INCLINATION":97.4265,"RA_OF_ASC_NODE":144.1318,"ARG_OF_PERICENTER":49.2046,"MEAN_ANOMALY":310.9261,"EPHEMERIS_TYPE":0,"CLASSIFICATION_TYPE":"U","NORAD_CAT_ID":66695,"ELEMENT_SET_NO":999,"REV_AT_EPOCH":1533,"BSTAR":0.00038663659,"MEAN_MOTION_DOT":8.188e-5,"MEAN_MOTION_DDOT":0},{"OBJECT_NAME":"COSMOS 2251 DEB","OBJECT_ID":"1993-036AWN","EPOCH":"2026-03-09T06:26:08.321568","MEAN_MOTION":15.11257706,"ECCENTRICITY":0.00842289,"INCLINATION":74.0116,"RA_OF_ASC_NODE":284.5024,"ARG_OF_PERICENTER":350.308,"MEAN_ANOMALY":9.6482,"EPHEMERIS_TYPE":0,"CLASSIFICATION_TYPE":"U","NORAD_CAT_ID":35996,"ELEMENT_SET_NO":999,"REV_AT_EPOCH":73632,"BSTAR":0.00055219842,"MEAN_MOTION_DOT":0.00010085,"MEAN_MOTION_DDOT":0}]
